[{"OBJECT_NAME":"IRIDIUM 118","OBJECT_ID":"2017-039E","EPOCH":"2026-03-09T21:26:30.895296","MEAN_MOTION":14.34218754,"ECCENTRICITY":0.00022329,"INCLINATION":86.3973,"RA_OF_ASC_NODE":35.1169,"ARG_OF_PERICENTER":84.727,"MEAN_ANOMALY":275.4181,"EPHEMERIS_TYPE":0,"CLASSIFICATION_TYPE":"U","NORAD_CAT_ID":42807,"ELEMENT_SET_NO":999,"REV_AT_EPOCH":45571,"BSTAR":0.00012914778,"MEAN_MOTION_DOT":3.81e-6,"MEAN_MOTION_DDOT":0},{"OBJECT_NAME":"NOAA 16 DEB","OBJECT_ID":"2000-055MG","EPOCH":"2026-03-08T06:44:56.423904","MEAN_MOTION":14.33750039,"ECCENTRICITY":0.00256971,"INCLINATION":98.8533,"RA_OF_ASC_NODE":190.8698,"ARG_OF_PERICENTER":213.2778,"MEAN_ANOMALY":146.6791,"EPHEMERIS_TYPE":0,"CLASSIFICATION_TYPE":"U","NORAD_CAT_ID":41508,"ELEMENT_SET_NO":999,"REV_AT_EPOCH":51218,"BSTAR":0.0026780158,"MEAN_MOTION_DOT":7.428e-5,"MEAN_MOTION_DDOT":0}]
